H1 CPF 01  gfz 2022 07 25 00  7061 tandemx   
H2 1003001  6202 36605    2022 07 25 00 59 42 2022 07 30 00 00 42   120 1 1  0 0 0
H9
10 0 59785  69822.000000  0   -4057323.030   2234058.956  -5106877.414
10 0 59785  69942.000000  0   -3340776.530   2079008.635  -5661680.490
10 0 59785  70062.000000  0   -2569398.491   1874859.992  -6117531.206
10 0 59785  70182.000000  0   -1757449.978   1624350.404  -6466557.565
10 0 59785  70302.000000  0    -919807.648   1331263.980  -6702745.540
10 0 59785  70422.000000  0     -71694.399   1000373.770  -6822031.532
10 0 59785  70542.000000  0     771590.848    637364.831  -6822363.971
10 0 59785  70662.000000  0    1594942.144    248738.736  -6703737.014
10 0 59785  70782.000000  0    2383712.008   -158300.465  -6468190.297
10 0 59785  70902.000000  0    3123966.107   -575975.814  -6119777.741
10 0 59785  71022.000000  0    3802726.780   -996081.564  -5664504.672
10 0 59785  71142.000000  0    4408199.235  -1410139.206  -5110234.473
10 0 59785  71262.000000  0    4929980.669  -1809564.970  -4466565.141
10 0 59785  71382.000000  0    5359245.861  -2185844.764  -3744673.839
10 0 59785  71502.000000  0    5688905.913  -2530712.765  -2957132.172
10 0 59785  71622.000000  0    5913736.326  -2836330.309  -2117693.155
10 0 59785  71742.000000  0    6030469.847  -3095460.721  -1241053.162
10 0 59785  71862.000000  0    6037852.150  -3301635.699   -342593.830
10 0 59785  71982.000000  0    5936657.979  -3449309.379    561892.439
10 0 59785  72102.000000  0    5729667.086  -3533995.859   1456486.820
10 0 59785  72222.000000  0    5421599.232  -3552386.074   2325434.545
10 0 59785  72342.000000  0    5019007.836  -3502439.624   3153431.002
10 0 59785  72462.000000  0    4530138.772  -3383450.797   3925898.412
10 0 59785  72582.000000  0    3964757.348  -3196086.267   4629246.928
10 0 59785  72702.000000  0    3333947.100  -2942395.800   5251117.127
10 0 59785  72822.000000  0    2649884.403  -2625792.970   5780596.364
10 0 59785  72942.000000  0    1925597.406  -2251008.095   6208406.618
10 0 59785  73062.000000  0    1174712.914  -1824015.441   6527061.725
10 0 59785  73182.000000  0     411196.806  -1351935.556   6730992.394
10 0 59785  73302.000000  0    -350906.989   -842914.345   6816637.608
10 0 59785  73422.000000  0   -1097734.315   -305981.426   6782502.196
10 0 59785  73542.000000  0   -1815851.792    249109.814   6629181.129
10 0 59785  73662.000000  0   -2492497.528    812058.916   6359349.901
10 0 59785  73782.000000  0   -3115807.994   1372208.560   5977721.046
10 0 59785  73902.000000  0   -3675027.722   1918745.386   5490967.362
10 0 59785  74022.000000  0   -4160699.230   2440908.824   4907612.062
10 0 59785  74142.000000  0   -4564829.065   2928204.727   4237885.357
10 0 59785  74262.000000  0   -4881026.028   3370617.722   3493548.456
10 0 59785  74382.000000  0   -5104608.143   3758819.052   2687689.206
10 0 59785  74502.000000  0   -5232676.738   4084365.587   1834491.958
10 0 59785  74622.000000  0   -5264155.812   4339884.861    948984.153
10 0 59785  74742.000000  0   -5199793.412   4519240.361     46764.309
10 0 59785  74862.000000  0   -5042125.993   4617672.294   -856280.365
10 0 59785  74982.000000  0   -4795407.276   4631912.516  -1744263.217
10 0 59785  75102.000000  0   -4465501.013   4560268.585  -2601587.317
10 0 59785  75222.000000  0   -4059742.191   4402673.923  -3413226.279
10 0 59785  75342.000000  0   -3586770.263   4160704.853  -4164990.737
10 0 59785  75462.000000  0   -3056340.062   3837564.809  -4843774.674
10 0 59785  75582.000000  0   -2479116.337   3438037.022  -5437777.618
10 0 59785  75702.000000  0   -1866457.245   2968408.638  -5936701.821
10 0 59785  75822.000000  0   -1230188.890   2436365.830  -6331921.467
10 0 59785  75942.000000  0    -582377.197   1850862.922  -6616619.921
10 0 59785  76062.000000  0      64897.937   1221970.155  -6785895.837
10 0 59785  76182.000000  0     699762.506    560701.389  -6836838.442
10 0 59785  76302.000000  0    1310761.262   -121175.010  -6768573.520
10 0 59785  76422.000000  0    1887060.118   -811341.630  -6582275.736
10 0 59785  76542.000000  0    2418633.159  -1497148.572  -6281150.000
10 0 59785  76662.000000  0    2896434.524  -2165839.371  -5870382.443
10 0 59785  76782.000000  0    3312551.791  -2804783.094  -5357061.592
10 0 59785  76902.000000  0    3660340.485  -3401712.675  -4750067.949
10 0 59785  77022.000000  0    3934533.577  -3944961.158  -4059929.298
10 0 59785  77142.000000  0    4131325.037  -4423691.140  -3298648.557
10 0 59785  77262.000000  0    4248427.603  -4828115.497  -2479503.800
10 0 59785  77382.000000  0    4285101.863  -5149703.661  -1616821.199
10 0 59785  77502.000000  0    4242153.270  -5381367.666   -725724.354
10 0 59785  77622.000000  0    4121898.306  -5517621.663    178134.559
10 0 59785  77742.000000  0    3928099.297  -5554711.559   1078856.080
10 0 59785  77862.000000  0    3665870.060  -5490710.845   1960581.979
10 0 59785  77982.000000  0    3341553.023  -5325578.121   2807784.096
10 0 59785  78102.000000  0    2962571.849  -5061177.469   3605544.959
10 0 59785  78222.000000  0    2537264.422  -4701259.928   4339826.558
10 0 59785  78342.000000  0    2074700.221  -4251407.058   4997720.891
10 0 59785  78462.000000  0    1584486.132  -3718938.157   5567677.442
10 0 59785  78582.000000  0    1076565.645  -3112783.673   6039704.416
10 0 59785  78702.000000  0     561015.330  -2443327.773   6405538.733
10 0 59785  78822.000000  0      47844.380  -1722225.087   6658783.717
10 0 59785  78942.000000  0    -453198.843   -962195.053   6795014.598
10 0 59785  79062.000000  0    -932810.757   -176795.799   6811852.229
10 0 59785  79182.000000  0   -1382304.443    619818.331   6709001.852
10 0 59785  79302.000000  0   -1793766.524   1413151.394   6488257.628
10 0 59785  79422.000000  0   -2160196.557   2188628.658   6153473.295
10 0 59785  79542.000000  0   -2475627.001   2931864.148   5710499.101
10 0 59785  79662.000000  0   -2735221.562   3628928.831   5167085.461
10 0 59785  79782.000000  0   -2935351.639   4266615.081   4532754.297
10 0 59785  79902.000000  0   -3073648.268   4832692.749   3818637.408
10 0 59785  80022.000000  0   -3149028.069   5316151.269   3037284.272
10 0 59785  80142.000000  0   -3161692.306   5707421.511   2202441.380
10 0 59785  80262.000000  0   -3113099.503   5998571.702   1328807.856
10 0 59785  80382.000000  0   -3005911.552   6183473.631    431772.140
10 0 59785  80502.000000  0   -2843914.596   6257935.052   -472866.273
10 0 59785  80622.000000  0   -2631917.334   6219793.572  -1369184.585
10 0 59785  80742.000000  0   -2375627.780   6068968.462  -2241428.476
10 0 59785  80862.000000  0   -2081510.710   5807466.812  -3074297.068
10 0 59785  80982.000000  0   -1756632.839   5439350.163  -3853213.623
10 0 59785  81102.000000  0   -1408499.621   4970661.453  -4564581.308
10 0 59785  81222.000000  0   -1044887.349   4409313.962  -5196016.441
10 0 59785  81342.000000  0    -673674.532   3764947.977  -5736557.215
10 0 59785  81462.000000  0    -302675.315   3048756.337  -6176845.876
10 0 59785  81582.000000  0      60521.044   2273282.404  -6509279.816
10 0 59785  81702.000000  0     408700.514   1452197.576  -6728130.567
10 0 59785  81822.000000  0     735162.788    600061.353  -6829633.491
10 0 59785  81942.000000  0    1033846.531   -267933.288  -6812045.358
10 0 59785  82062.000000  0    1299438.527  -1136225.721  -6675670.301
10 0 59785  82182.000000  0    1527465.426  -1989159.222  -6422853.640
10 0 59785  82302.000000  0    1714367.943  -2811255.466  -6057946.559
10 0 59785  82422.000000  0    1857556.529  -3587490.402  -5587240.814
10 0 59785  82542.000000  0    1955446.827  -4303569.185  -5018871.244
10 0 59785  82662.000000  0    2007474.462  -4946190.799  -4362684.628
10 0 59785  82782.000000  0    2014089.113  -5503299.085  -3630080.344
10 0 59785  82902.000000  0    1976727.367  -5964317.779  -2833821.880
10 0 59785  83022.000000  0    1897763.938  -6320362.595  -1987820.553
10 0 59785  83142.000000  0    1780442.250  -6564423.370  -1106893.837
10 0 59785  83262.000000  0    1628786.918  -6691513.373   -206504.890
10 0 59785  83382.000000  0    1447499.159  -6698779.146    697515.827
10 0 59785  83502.000000  0    1241837.010  -6585568.077   1589255.026
10 0 59785  83622.000000  0    1017483.811  -6353453.426   2453007.230
10 0 59785  83742.000000  0     780408.808  -6006210.914   3273560.663
10 0 59785  83862.000000  0     536721.824  -5549752.207   4036471.804
10 0 59785  83982.000000  0     292527.631  -4992016.824   4728323.609
10 0 59785  84102.000000  0      53782.870  -4342824.810   5336963.348
10 0 59785  84222.000000  0    -173840.622  -3613693.729   5851714.978
10 0 59785  84342.000000  0    -385082.612  -2817624.262   6263563.143
10 0 59785  84462.000000  0    -575209.812  -1968860.398   6565303.840
10 0 59785  84582.000000  0    -740116.992  -1082631.394   6751663.548
10 0 59785  84702.000000  0    -876412.159   -174876.887   6819387.247
10 0 59785  84822.000000  0    -981484.832    738040.850   6767292.347
10 0 59785  84942.000000  0   -1053555.405   1639631.680   6596287.815
10 0 59785  85062.000000  0   -1091704.922   2513574.830   6309359.144
10 0 59785  85182.000000  0   -1095885.650   3344014.260   5911519.614
10 0 59785  85302.000000  0   -1066912.229   4115848.224   5409727.733
10 0 59785  85422.000000  0   -1006432.490   4815007.453   4812771.490
10 0 59785  85542.000000  0    -916880.040   5428718.760   4131120.546
10 0 59785  85662.000000  0    -801407.789   5945746.451   3376745.598
10 0 59785  85782.000000  0    -663805.685   6356607.253   2562912.429
10 0 59785  85902.000000  0    -508403.170   6653757.194   1703946.506
10 0 59785  86022.000000  0    -339956.779   6831737.688    814975.176
10 0 59785  86142.000000  0    -163527.949   6887281.581    -88344.995
10 0 59785  86262.000000  0      15646.467   6819376.666   -990112.179
99
